[{"OBJECT_NAME":"FLOCK 4BE-25","OBJECT_ID":"2024-149V","EPOCH":"2026-03-09T18:30:08.620704","MEAN_MOTION":15.3601114,"ECCENTRICITY":0.00017232,"INCLINATION":97.3839,"RA_OF_ASC_NODE":151.4375,"ARG_OF_PERICENTER":216.9138,"MEAN_ANOMALY":143.1988,"EPHEMERIS_TYPE":0,"CLASSIFICATION_TYPE":"U","NORAD_CAT_ID":60487,"ELEMENT_SET_NO":999,"REV_AT_EPOCH":8696,"BSTAR":0.00050937903,"MEAN_MOTION_DOT":0.00017801,"MEAN_MOTION_DDOT":0},{"OBJECT_NAME":"SL-14 R\/B","OBJECT_ID":"1991-086B","EPOCH":"2026-03-09T21:12:20.037600","MEAN_MOTION":11.96623945,"ECCENTRICITY":0.15622342,"INCLINATION":82.5616,"RA_OF_ASC_NODE":35.3422,"ARG_OF_PERICENTER":86.2667,"MEAN_ANOMALY":291.495,"EPHEMERIS_TYPE":0,"CLASSIFICATION_TYPE":"U","NORAD_CAT_ID":21820,"ELEMENT_SET_NO":999,"REV_AT_EPOCH":48727,"BSTAR":0.00015922751,"MEAN_MOTION_DOT":8.43e-6,"MEAN_MOTION_DDOT":0}]
